NORAD_CAT_ID,OBJECT_NAME,OBJECT_TYPE,EPOCH,MEAN_MOTION,ECCENTRICITY,INCLINATION,RA_OF_ASC_NODE,ARG_OF_PERICENTER,MEAN_ANOMALY,BSTAR,MEAN_MOTION_DOT,MEAN_MOTION_DDOT,TLE_LINE0,TLE_LINE1,TLE_LINE2,SEMIMAJOR_AXIS,PERIOD,APOGEE,PERIGEE,DECAYED
53855.0,STARLINK-4703,PAYLOAD,2024-07-30 06:17:43,15.08853492,0.000149,53.2184,50.9282,89.8017,270.3146,0.00030937,4.641e-05,0.0,0 STARLINK-4703,1 53855U 22114AP  24212.26231437  .00004641  00000-0  30937-3 0  9995,2 53855  53.2184  50.9282 0001490  89.8017 270.3146 15.08853492103758,6917.839,95.437,540.735,538.673,0.0
53855.0,STARLINK-4703,PAYLOAD,2024-07-31 06:08:31,15.0884237,0.0001412,53.2176,46.4658,74.9143,285.2006,-1.0749e-05,-4.59e-06,0.0,0 STARLINK-4703,1 53855U 22114AP  24213.25591762 -.00000459  00000-0 -10749-4 0  9990,2 53855  53.2176  46.4658 0001412  74.9143 285.2006 15.08842370103905,6917.873,95.437,540.715,538.761,0.0
53855.0,STARLINK-4703,PAYLOAD,2024-07-31 18:51:37,15.08832577,0.0001827,53.2192,44.0844,84.3696,275.7504,-0.00010156,-1.904e-05,0.0,0 STARLINK-4703,1 53855U 22114AP  24213.78584535 -.00001904  00000-0 -10156-3 0  9995,2 53855  53.2192  44.0844 0001827  84.3696 275.7504 15.08832577103985,6917.903,95.438,541.032,538.504,0.0
53855.0,STARLINK-4703,PAYLOAD,2024-08-01 17:06:58,15.08891706,0.0001737,53.2193,39.9212,68.9765,291.1413,-0.00060452,-9.91e-05,0.0,0 STARLINK-4703,1 53855U 22114AP  24214.71317411 -.00009910  00000-0 -60452-3 0  9995,2 53855  53.2193  39.9212 0001737  68.9765 291.1413 15.08891706104120,6917.722,95.434,540.789,538.386,0.0
53855.0,STARLINK-4703,PAYLOAD,2024-08-01 21:53:09,15.08849174,0.0001232,53.215,39.0315,76.5747,283.5382,0.00049533,7.606e-05,0.0,0 STARLINK-4703,1 53855U 22114AP  24214.91191653  .00007606  00000-0  49533-3 0  9990,2 53855  53.2150  39.0315 0001232  76.5747 283.5382 15.08849174104697,6917.852,95.437,540.57,538.865,0.0
53855.0,STARLINK-4703,PAYLOAD,2024-08-02 12:11:38,15.08850623,0.0002837,53.2157,36.3543,89.4944,270.6373,0.00042436,6.474e-05,0.0,0 STARLINK-4703,1 53855U 22114AP  24215.50808113  .00006474  00000-0  42436-3 0  9999,2 53855  53.2157  36.3543 0002837  89.4944 270.6373 15.08850623104240,6917.848,95.437,541.676,537.75,0.0
53855.0,STARLINK-4703,PAYLOAD,2024-08-02 18:33:10,15.08835218,0.0001496,53.215,35.1659,93.0606,267.0557,-6.1915e-05,-1.273e-05,0.0,0 STARLINK-4703,1 53855U 22114AP  24215.77304365 -.00001273  00000-0 -61915-4 0  9996,2 53855  53.2150  35.1659 0001496  93.0606 267.0557 15.08835218104285,6917.895,95.438,540.795,538.725,0.0
53855.0,STARLINK-4703,PAYLOAD,2024-08-03 15:13:12,15.08845785,0.0001479,53.2167,31.3007,96.2842,263.8319,0.00098713,0.0001546,0.0,0 STARLINK-4703,1 53855U 22114AP  24216.63416796  .00015460  00000-0  98713-3 0  9990,2 53855  53.2167  31.3007 0001479  96.2842 263.8319 15.08845785104950,6917.863,95.437,540.751,538.705,0.0
53855.0,STARLINK-4703,PAYLOAD,2024-08-03 18:23:58,15.08849302,0.0001384,53.2165,30.7071,89.2705,270.8446,0.0010038,0.00015728,0.0,0 STARLINK-4703,1 53855U 22114AP  24216.76664779  .00015728  00000-0  10038-2 0  9990,2 53855  53.2165  30.7071 0001384  89.2705 270.8446 15.08849302104977,6917.852,95.437,540.674,538.76,0.0
53855.0,STARLINK-4703,PAYLOAD,2024-08-04 11:53:12,15.08863088,0.0001402,53.2166,27.4346,82.2065,277.9086,0.0010583,0.00016606,0.0,0 STARLINK-4703,1 53855U 22114AP  24217.49528470  .00016606  00000-0  10583-2 0  9999,2 53855  53.2166  27.4346 0001402  82.2065 277.9086 15.08863088104547,6917.81,95.436,540.645,538.705,0.0
53855.0,STARLINK-4703,PAYLOAD,2024-08-04 15:03:58,15.0884561,0.000129,53.2168,26.8417,91.7117,268.4023,0.00029431,4.4e-05,0.0,0 STARLINK-4703,1 53855U 22114AP  24217.62776421  .00004400  00000-0  29431-3 0  9997,2 53855  53.2168  26.8417 0001290  91.7117 268.4023 15.08845610105109,6917.863,95.437,540.621,538.836,0.0
53855.0,STARLINK-4703,PAYLOAD,2024-08-04 18:14:45,15.08851833,0.0001271,53.2169,26.2469,96.3263,263.7874,0.00059406,9.182e-05,0.0,0 STARLINK-4703,1 53855U 22114AP  24217.76024308  .00009182  00000-0  59406-3 0  9999,2 53855  53.2169  26.2469 0001271  96.3263 263.7874 15.08851833104580,6917.844,95.437,540.588,538.83,0.0
53855.0,STARLINK-4703,PAYLOAD,2024-08-05 03:47:03,15.08873287,0.0001282,53.2169,24.4625,100.9513,259.1624,0.0015785,0.00024946,0.0,0 STARLINK-4703,1 53855U 22114AP  24218.15767711  .00024946  00000-0  15785-2 0  9991,2 53855  53.2169  24.4625 0001282 100.9513 259.1624 15.08873287104642,6917.779,95.435,540.531,538.757,0.0
53855.0,STARLINK-4703,PAYLOAD,2024-08-05 18:05:32,15.08824125,0.0001516,53.2179,21.7872,89.625,270.4916,0.0010772,0.0001689,0.0,0 STARLINK-4703,1 53855U 22114AP  24218.75384959  .00016890  00000-0  10772-2 0  9996,2 53855  53.2179  21.7872 0001516  89.6250 270.4916 15.08824125104735,6917.929,95.439,540.843,538.745,0.0
53855.0,STARLINK-4703,PAYLOAD,2024-08-06 03:37:51,15.08850558,0.0001474,53.2177,20.0016,83.6398,276.4762,0.0017062,0.00026978,0.0,0 STARLINK-4703,1 53855U 22114AP  24219.15128884  .00026978  00000-0  17062-2 0  9991,2 53855  53.2177  20.0016 0001474  83.6398 276.4762 15.08850558104795,6917.848,95.437,540.733,538.693,0.0
53855.0,STARLINK-4703,PAYLOAD,2024-08-06 14:45:33,15.08836462,0.000153,53.2174,17.9208,96.31,263.8066,0.001244,0.00019564,0.0,0 STARLINK-4703,1 53855U 22114AP  24219.61497424  .00019564  00000-0  12440-2 0  9999,2 53855  53.2174  17.9208 0001530  96.3100 263.8066 15.08836462105409,6917.891,95.438,540.815,538.698,0.0
53855.0,STARLINK-4703,PAYLOAD,2024-08-06 19:31:43,15.08843109,0.0001361,53.2172,17.0276,87.8784,272.2364,0.0020247,0.00032085,0.0,0 STARLINK-4703,1 53855U 22114AP  24219.81369476  .00032085  00000-0  20247-2 0  9993,2 53855  53.2172  17.0276 0001361  87.8784 272.2364 15.08843109104891,6917.871,95.437,540.677,538.794,0.0
53855.0,STARLINK-4703,PAYLOAD,2024-08-07 17:47:06,15.08858023,0.0001321,53.2175,12.8643,88.9153,271.199,0.00096639,0.00015133,0.0,0 STARLINK-4703,1 53855U 22114AP  24220.74105034  .00015133  00000-0  96639-3 0  9999,2 53855  53.2175  12.8643 0001321  88.9153 271.1990 15.08858023105034,6917.825,95.436,540.604,538.776,0.0
53855.0,STARLINK-4703,PAYLOAD,2024-08-08 17:37:53,15.08851381,0.0001417,53.2176,8.4044,80.8586,279.2566,0.00033824,5.101e-05,0.0,0 STARLINK-4703,1 53855U 22114AP  24221.73464857  .00005101  00000-0  33824-3 0  9991,2 53855  53.2176   8.4044 0001417  80.8586 279.2566 15.08851381105182,6917.846,95.437,540.691,538.73,0.0
53855.0,STARLINK-4703,PAYLOAD,2024-08-09 09:31:45,15.08830273,0.0001456,53.2176,5.4305,100.2947,259.8209,-0.00018202,-3.183e-05,0.0,0 STARLINK-4703,1 53855U 22114AP  24222.39705185 -.00003183  00000-0 -18202-3 0  9999,2 53855  53.2176   5.4305 0001456 100.2947 259.8209 15.08830273105286,6917.91,95.438,540.782,538.768,0.0
53855.0,STARLINK-4703,PAYLOAD,2024-08-09 14:17:54,15.08833572,0.0001548,53.2172,4.5421,90.0678,270.0492,-8.491e-05,-1.639e-05,0.0,0 STARLINK-4703,1 53855U 22114AP  24222.59577216 -.00001639  00000-0 -84910-4 0  9997,2 53855  53.2172   4.5421 0001548  90.0678 270.0492 15.08833572105857,6917.9,95.438,540.836,538.694,0.0
53855.0,STARLINK-4703,PAYLOAD,2024-08-09 15:53:17,15.08834909,0.0001248,53.216,4.2427,107.6663,252.4465,-7.0065e-05,-1.403e-05,0.0,0 STARLINK-4703,1 53855U 22114AP  24222.66200938 -.00001403  00000-0 -70065-4 0  9994,2 53855  53.2160   4.2427 0001248 107.6663 252.4465 15.08834909105863,6917.896,95.438,540.624,538.898,0.0
53855.0,STARLINK-4703,PAYLOAD,2024-08-10 14:08:41,15.08845244,0.0001504,53.2165,0.0789,105.3245,254.7913,0.00048945,7.511e-05,0.0,0 STARLINK-4703,1 53855U 22114AP  24223.58937111  .00007511  00000-0  48945-3 0  9991,2 53855  53.2165   0.0789 0001504 105.3245 254.7913 15.08845244106003,6917.864,95.437,540.77,538.689,0.0
53855.0,STARLINK-4703,PAYLOAD,2024-08-10 18:54:50,15.08850581,0.000149,53.2167,359.1855,106.4854,253.6302,0.00057854,8.934e-05,0.0,0 STARLINK-4703,1 53855U 22114AP  24223.78808953  .00008934  00000-0  57854-3 0  9993,2 53855  53.2167 359.1855 0001490 106.4854 253.6302 15.08850581105491,6917.848,95.437,540.744,538.682,0.0
53855.0,STARLINK-4703,PAYLOAD,2024-08-11 09:13:19,15.08847383,0.0001372,53.2174,356.5012,109.4251,250.689,0.00015096,2.116e-05,0.0,0 STARLINK-4703,1 53855U 22114AP  24224.38425297  .00002116  00000-0  15096-3 0  9994,2 53855  53.2174 356.5012 0001372 109.4251 250.6890 15.08847383105583,6917.858,95.437,540.672,538.774,0.0
53855.0,STARLINK-4703,PAYLOAD,2024-08-11 15:34:52,15.08841875,0.0001483,53.2175,355.3137,82.0454,278.0706,0.00023883,3.515e-05,0.0,0 STARLINK-4703,1 53855U 22114AP  24224.64921322  .00003515  00000-0  23883-3 0  9990,2 53855  53.2175 355.3137 0001483  82.0454 278.0706 15.08841875106168,6917.875,95.437,540.766,538.714,0.0
53855.0,STARLINK-4703,PAYLOAD,2024-08-12 09:04:06,15.08843558,5.87e-05,53.2175,352.0487,335.7227,24.3737,0.00026724,3.968e-05,0.0,0 STARLINK-4703,1 53855U 22114AP  24225.37785344  .00003968  00000-0  26724-3 0  9992,2 53855  53.2175 352.0487 0000587 335.7227  24.3737 15.08843558105738,6917.87,95.437,540.141,539.328,0.0
53855.0,STARLINK-4703,PAYLOAD,2024-08-12 15:25:38,15.08849676,5.92e-05,53.2165,350.8578,337.1726,22.924,0.00041831,6.378e-05,0.0,0 STARLINK-4703,1 53855U 22114AP  24225.64281148  .00006378  00000-0  41831-3 0  9999,2 53855  53.2165 350.8578 0000592 337.1726  22.9240 15.08849676106315,6917.851,95.437,540.125,539.306,0.0
53855.0,STARLINK-4703,PAYLOAD,2024-08-13 00:57:54,15.0891932,0.0001404,53.2184,349.0751,286.4919,73.5919,0.0018146,0.00028772,0.0,0 STARLINK-4703,1 53855U 22114AP  24226.04021660  .00028772  00000-0  18146-2 0  9999,2 53855  53.2184 349.0751 0001404 286.4919  73.5919 15.08919320105837,6917.638,95.433,540.474,538.532,0.0
53855.0,STARLINK-4703,PAYLOAD,2024-08-13 08:54:53,15.08814745,7.63e-05,53.221,347.591,73.7484,286.3592,-0.00112,-0.00018055,0.0,0 STARLINK-4703,1 53855U 22114AP  24226.37145103 -.00018055  00000-0 -11200-2 0  9993,2 53855  53.2210 347.5910 0000763  73.7484 286.3592 15.08814745105889,6917.958,95.439,540.35,539.295,0.0
